{
  "type": "FeatureCollection",
  "features": [
    {
      "type": "Feature",
      "properties": {
        "norad_id": 49336,
        "name": "QZS-1R (QZSS/PRN 196)",
        "group": "gnss",
        "lat": -5.003912746105985,
        "lon": -91.11596004240715,
        "alt_km": 35173.40635683594,
        "timestamp": "2025-12-20T03:42:47.636980+00:00",
        "meta_object_name": "QZS-1R (QZSS/PRN 196)",
        "meta_object_id": "2021-096A",
        "meta_epoch": "2025-12-18T14:04:25.772160",
        "meta_mean_motion": 1.00255833,
        "meta_eccentricity": 0.07566602,
        "meta_inclination": 37.0895,
        "meta_ra_of_asc_node": 82.273,
        "meta_arg_of_pericenter": 271.433,
        "meta_mean_anomaly": 79.2664,
        "meta_ephemeris_type": 0,
        "meta_classification_type": "U",
        "meta_norad_cat_id": 49336,
        "meta_element_set_no": 999,
        "meta_rev_at_epoch": 1519,
        "meta_bstar": 0,
        "meta_mean_motion_dot": -2.72e-06,
        "meta_mean_motion_ddot": 0,
        "tle_line1": "1 49336U 21096A   25352.58640940 -.00000272  00000+0  00000+0 0  9996",
        "tle_line2": "2 49336  37.0895  82.2730 0756660 271.4330  79.2664  1.00255833 15198"
      },
      "geometry": {
        "type": "Point",
        "coordinates": [
          -91.11596004240715,
          -5.003912746105985
        ]
      }
    },
    {
      "type": "Feature",
      "properties": {
        "norad_id": 49809,
        "name": "GSAT0223 (GALILEO 27)",
        "group": "gnss",
        "lat": 35.56847497529478,
        "lon": 13.950085016484964,
        "alt_km": 23228.883123994427,
        "timestamp": "2025-12-20T03:42:47.636991+00:00",
        "meta_object_name": "GSAT0223 (GALILEO 27)",
        "meta_object_id": "2021-116A",
        "meta_epoch": "2025-12-19T11:56:47.637312",
        "meta_mean_motion": 1.7047609,
        "meta_eccentricity": 0.00044147,
        "meta_inclination": 57.2179,
        "meta_ra_of_asc_node": 346.5305,
        "meta_arg_of_pericenter": 254.6091,
        "meta_mean_anomaly": 105.9777,
        "meta_ephemeris_type": 0,
        "meta_classification_type": "U",
        "meta_norad_cat_id": 49809,
        "meta_element_set_no": 999,
        "meta_rev_at_epoch": 2512,
        "meta_bstar": 0,
        "meta_mean_motion_dot": -7.2e-07,
        "meta_mean_motion_ddot": 0,
        "tle_line1": "1 49809U 21116A   25353.49777358 -.00000072  00000+0  00000+0 0  9997",
        "tle_line2": "2 49809  57.2179 346.5305 0004414 254.6091 105.9777  1.70476090 25129"
      },
      "geometry": {
        "type": "Point",
        "coordinates": [
          13.950085016484964,
          35.56847497529478
        ]
      }
    },
    {
      "type": "Feature",
      "properties": {
        "norad_id": 49810,
        "name": "GSAT0224 (GALILEO 28)",
        "group": "gnss",
        "lat": 19.700530777136358,
        "lon": 153.16015073783024,
        "alt_km": 23221.9984558212,
        "timestamp": "2025-12-20T03:42:47.637003+00:00",
        "meta_object_name": "GSAT0224 (GALILEO 28)",
        "meta_object_id": "2021-116B",
        "meta_epoch": "2025-12-18T10:12:29.028672",
        "meta_mean_motion": 1.70476126,
        "meta_eccentricity": 0.00037733,
        "meta_inclination": 57.2191,
        "meta_ra_of_asc_node": 346.558,
        "meta_arg_of_pericenter": 258.3671,
        "meta_mean_anomaly": 276.634,
        "meta_ephemeris_type": 0,
        "meta_classification_type": "U",
        "meta_norad_cat_id": 49810,
        "meta_element_set_no": 999,
        "meta_rev_at_epoch": 2512,
        "meta_bstar": 0,
        "meta_mean_motion_dot": -7.5e-07,
        "meta_mean_motion_ddot": 0,
        "tle_line1": "1 49810U 21116B   25352.42533598 -.00000075  00000+0  00000+0 0  9990",
        "tle_line2": "2 49810  57.2191 346.5580 0003773 258.3671 276.6340  1.70476126 25124"
      },
      "geometry": {
        "type": "Point",
        "coordinates": [
          153.16015073783024,
          19.700530777136358
        ]
      }
    },
    {
      "type": "Feature",
      "properties": {
        "norad_id": 52984,
        "name": "COSMOS 2557 (706K)",
        "group": "gnss",
        "lat": -45.725438762190436,
        "lon": 170.20501368019313,
        "alt_km": 19111.071360206104,
        "timestamp": "2025-12-20T03:42:47.637019+00:00",
        "meta_object_name": "COSMOS 2557 (706K)",
        "meta_object_id": "2022-075A",
        "meta_epoch": "2025-12-18T21:54:24.162624",
        "meta_mean_motion": 2.1310197,
        "meta_eccentricity": 0.00135327,
        "meta_inclination": 64.4064,
        "meta_ra_of_asc_node": 320.8341,
        "meta_arg_of_pericenter": 277.9279,
        "meta_mean_anomaly": 81.9104,
        "meta_ephemeris_type": 0,
        "meta_classification_type": "U",
        "meta_norad_cat_id": 52984,
        "meta_element_set_no": 999,
        "meta_rev_at_epoch": 2687,
        "meta_bstar": 0,
        "meta_mean_motion_dot": -6.2e-07,
        "meta_mean_motion_ddot": 0,
        "tle_line1": "1 52984U 22075A   25352.91277966 -.00000062  00000+0  00000+0 0  9995",
        "tle_line2": "2 52984  64.4064 320.8341 0013532 277.9279  81.9104  2.13101970 26872"
      },
      "geometry": {
        "type": "Point",
        "coordinates": [
          170.20501368019313,
          -45.725438762190436
        ]
      }
    },
    {
      "type": "Feature",
      "properties": {
        "norad_id": 54031,
        "name": "COSMOS 2559 (707K)",
        "group": "gnss",
        "lat": 10.311777153700383,
        "lon": -34.13006549573808,
        "alt_km": 19158.67440187559,
        "timestamp": "2025-12-20T03:42:47.637030+00:00",
        "meta_object_name": "COSMOS 2559 (707K)",
        "meta_object_id": "2022-130A",
        "meta_epoch": "2025-12-19T04:49:46.570944",
        "meta_mean_motion": 2.13101385,
        "meta_eccentricity": 0.0011608,
        "meta_inclination": 64.3786,
        "meta_ra_of_asc_node": 320.9138,
        "meta_arg_of_pericenter": 191.996,
        "meta_mean_anomaly": 167.9688,
        "meta_ephemeris_type": 0,
        "meta_classification_type": "U",
        "meta_norad_cat_id": 54031,
        "meta_element_set_no": 999,
        "meta_rev_at_epoch": 2485,
        "meta_bstar": 0,
        "meta_mean_motion_dot": -6.1e-07,
        "meta_mean_motion_ddot": 0,
        "tle_line1": "1 54031U 22130A   25353.20123346 -.00000061  00000+0  00000+0 0  9996",
        "tle_line2": "2 54031  64.3786 320.9138 0011608 191.9960 167.9688  2.13101385 24854"
      },
      "geometry": {
        "type": "Point",
        "coordinates": [
          -34.13006549573808,
          10.311777153700383
        ]
      }
    },
    {
      "type": "Feature",
      "properties": {
        "norad_id": 54377,
        "name": "COSMOS 2564 (761)",
        "group": "gnss",
        "lat": 43.08727832253695,
        "lon": -7.566619368244789,
        "alt_km": 19118.577312710306,
        "timestamp": "2025-12-20T03:42:47.637041+00:00",
        "meta_object_name": "COSMOS 2564 (761)",
        "meta_object_id": "2022-161A",
        "meta_epoch": "2025-12-19T01:05:24.764064",
        "meta_mean_motion": 2.13102078,
        "meta_eccentricity": 0.0008559,
        "meta_inclination": 64.7386,
        "meta_ra_of_asc_node": 198.6894,
        "meta_arg_of_pericenter": 204.0173,
        "meta_mean_anomaly": 156.0236,
        "meta_ephemeris_type": 0,
        "meta_classification_type": "U",
        "meta_norad_cat_id": 54377,
        "meta_element_set_no": 999,
        "meta_rev_at_epoch": 2379,
        "meta_bstar": 0,
        "meta_mean_motion_dot": 1.07e-06,
        "meta_mean_motion_ddot": 0,
        "tle_line1": "1 54377U 22161A   25353.04542551  .00000107  00000+0  00000+0 0  9998",
        "tle_line2": "2 54377  64.7386 198.6894 0008559 204.0173 156.0236  2.13102078 23799"
      },
      "geometry": {
        "type": "Point",
        "coordinates": [
          -7.566619368244789,
          43.08727832253695
        ]
      }
    },
    {
      "type": "Feature",
      "properties": {
        "norad_id": 55268,
        "name": "GPS BIII-6  (PRN 28)",
        "group": "gnss",
        "lat": 33.95548452221895,
        "lon": -52.498703388668936,
        "alt_km": 20186.37708504988,
        "timestamp": "2025-12-20T03:42:47.637052+00:00",
        "meta_object_name": "GPS BIII-6  (PRN 28)",
        "meta_object_id": "2023-009A",
        "meta_epoch": "2025-12-17T11:51:56.668896",
        "meta_mean_motion": 2.00555417,
        "meta_eccentricity": 0.00037978,
        "meta_inclination": 55.1064,
        "meta_ra_of_asc_node": 155.6587,
        "meta_arg_of_pericenter": 358.2196,
        "meta_mean_anomaly": 17.9493,
        "meta_ephemeris_type": 0,
        "meta_classification_type": "U",
        "meta_norad_cat_id": 55268,
        "meta_element_set_no": 999,
        "meta_rev_at_epoch": 2160,
        "meta_bstar": 0,
        "meta_mean_motion_dot": 7.7e-07,
        "meta_mean_motion_ddot": 0,
        "tle_line1": "1 55268U 23009A   25351.49440589  .00000077  00000+0  00000+0 0  9991",
        "tle_line2": "2 55268  55.1064 155.6587 0003797 358.2196  17.9493  2.00555417 21607"
      },
      "geometry": {
        "type": "Point",
        "coordinates": [
          -52.498703388668936,
          33.95548452221895
        ]
      }
    }
  ]
}